NORAD_CAT_ID,OBJECT_NAME,OBJECT_TYPE,EPOCH,MEAN_MOTION,ECCENTRICITY,INCLINATION,RA_OF_ASC_NODE,ARG_OF_PERICENTER,MEAN_ANOMALY,BSTAR,MEAN_MOTION_DOT,MEAN_MOTION_DDOT,TLE_LINE0,TLE_LINE1,TLE_LINE2,SEMIMAJOR_AXIS,PERIOD,APOGEE,PERIGEE,DECAYED
53160.0,STARLINK-4096,PAYLOAD,2023-03-06 03:13:47,15.08812838,0.0001382,53.2174,60.2105,127.8646,232.2471,0.00084051,0.00013104,0.0,0 STARLINK-4096,1 53160U 22083AE  23065.13457728  .00013104  00000-0  84051-3 0  9993,2 53160  53.2174  60.2105 0001382 127.8646 232.2471 15.08812838 35992,6917.963,95.439,540.784,538.872,0.0
53160.0,STARLINK-4096,PAYLOAD,2023-03-06 11:10:43,15.08831198,0.0001282,53.2182,58.7246,110.5916,249.5213,0.0016422,0.00025938,0.0,0 STARLINK-4096,1 53160U 22083AE  23065.46578274  .00025938  00000-0  16422-2 0  9993,2 53160  53.2182  58.7246 0001282 110.5916 249.5213 15.08831198 36049,6917.907,95.438,540.659,538.885,0.0
53160.0,STARLINK-4096,PAYLOAD,2023-03-07 06:15:20,15.0889115,0.0001316,53.2182,55.1579,114.0277,246.0853,0.0023518,0.00037392,0.0,0 STARLINK-4096,1 53160U 22083AE  23066.26065111  .00037392  00000-0  23518-2 0  9994,2 53160  53.2182  55.1579 0001316 114.0277 246.0853 15.08891150 36165,6917.724,95.434,540.499,538.679,0.0
53160.0,STARLINK-4096,PAYLOAD,2023-03-07 15:47:38,15.08863831,0.0003315,53.2179,53.371,97.4183,262.7186,-0.00067845,-0.00011078,0.0,0 STARLINK-4096,1 53160U 22083AE  23066.65808977 -.00011078  00000-0 -67845-3 0  9999,2 53160  53.2179  53.3710 0003315  97.4183 262.7186 15.08863831 36225,6917.808,95.436,541.966,537.379,0.0
53160.0,STARLINK-4096,PAYLOAD,2023-03-07 22:09:10,15.08871488,0.0001642,53.2179,52.1845,93.9018,266.2162,0.0010396,0.0001631,0.0,0 STARLINK-4096,1 53160U 22083AE  23066.92304287  .00016310  00000-0  10396-2 0  9994,2 53160  53.2179  52.1845 0001642  93.9018 266.2162 15.08871488 35634,6917.784,95.436,540.785,538.513,0.0
53160.0,STARLINK-4096,PAYLOAD,2023-03-08 02:55:20,15.08861875,0.0001037,53.218,51.2914,100.6913,259.4196,0.00083639,0.00013056,0.0,0 STARLINK-4096,1 53160U 22083AE  23067.12176017  .00013056  00000-0  83639-3 0  9990,2 53160  53.2180  51.2914 0001037 100.6913 259.4196 15.08861875 36294,6917.814,95.436,540.396,538.961,0.0
53160.0,STARLINK-4096,PAYLOAD,2023-03-08 15:38:25,15.088614,0.0002166,53.2185,48.9122,88.4214,271.7026,0.0016731,0.00026456,0.0,0 STARLINK-4096,1 53160U 22083AE  23067.65168072  .00026456  00000-0  16731-2 0  9996,2 53160  53.2185  48.9122 0002166  88.4214 271.7026 15.08861400 36376,6917.815,95.436,541.178,538.182,0.0
53160.0,STARLINK-4096,PAYLOAD,2023-03-08 21:59:57,15.08872993,0.0002469,53.2173,47.7232,80.872,279.2551,0.0025268,0.00040193,0.0,0 STARLINK-4096,1 53160U 22083AE  23067.91664031  .00040193  00000-0  25268-2 0  9990,2 53160  53.2173  47.7232 0002469  80.8720 279.2551 15.08872993 35785,6917.78,95.435,541.353,537.937,0.0
53160.0,STARLINK-4096,PAYLOAD,2023-03-09 02:46:06,15.08865742,7.13e-05,53.2175,46.8308,92.0941,268.0133,0.0026926,0.00042856,0.0,0 STARLINK-4096,1 53160U 22083AE  23068.11535734  .00042856  00000-0  26926-2 0  9990,2 53160  53.2175  46.8308 0000713  92.0941 268.0133 15.08865742 36441,6917.802,95.436,540.16,539.173,0.0
53160.0,STARLINK-4096,PAYLOAD,2023-03-09 15:29:11,15.08868704,7.27e-05,53.2179,44.4519,101.7921,258.3153,0.0020902,0.0003316,0.0,0 STARLINK-4096,1 53160U 22083AE  23068.64527516  .00033160  00000-0  20902-2 0  9993,2 53160  53.2179  44.4519 0000727 101.7921 258.3153 15.08868704 36528,6917.793,95.436,540.161,539.155,0.0
53160.0,STARLINK-4096,PAYLOAD,2023-03-10 02:36:53,15.08866804,0.0001091,53.2183,42.3705,112.4805,247.6303,0.0023917,0.00038009,0.0,0 STARLINK-4096,1 53160U 22083AE  23069.10895554  .00038009  00000-0  23917-2 0  9991,2 53160  53.2183  42.3705 0001091 112.4805 247.6303 15.08866804 36596,6917.798,95.436,540.418,538.909,0.0
53160.0,STARLINK-4096,PAYLOAD,2023-03-10 15:19:59,15.08838874,0.0001958,53.2189,39.9927,69.0822,291.038,0.0025836,0.00041069,0.0,0 STARLINK-4096,1 53160U 22083AE  23069.63888177  .00041069  00000-0  25836-2 0  9994,2 53160  53.2189  39.9927 0001958  69.0822 291.0380 15.08838874 36671,6917.884,95.438,541.103,538.394,0.0
53160.0,STARLINK-4096,PAYLOAD,2023-03-11 04:03:05,15.08828451,8.21e-05,53.2192,37.6127,86.203,273.9056,0.0021569,0.00034195,0.0,0 STARLINK-4096,1 53160U 22083AE  23070.16880808  .00034195  00000-0  21569-2 0  9998,2 53160  53.2192  37.6127 0000821  86.2030 273.9056 15.08828451 36750,6917.916,95.438,540.349,539.213,0.0
53160.0,STARLINK-4096,PAYLOAD,2023-03-12 07:04:38,15.08868073,0.0001343,53.2199,32.558,97.3613,262.7532,0.0016911,0.00026749,0.0,0 STARLINK-4096,1 53160U 22083AE  23071.29488944  .00026749  00000-0  16911-2 0  9999,2 53160  53.2199  32.5580 0001343  97.3613 262.7532 15.08868073 36922,6917.795,95.436,540.589,538.731,0.0
53160.0,STARLINK-4096,PAYLOAD,2023-03-13 06:55:24,15.08871342,0.0001989,53.2205,28.0985,60.6134,299.5056,0.0010327,0.000162,0.0,0 STARLINK-4096,1 53160U 22083AE  23072.28848225  .00016200  00000-0  10327-2 0  9997,2 53160  53.2205  28.0985 0001989  60.6134 299.5056 15.08871342 37075,6917.785,95.436,541.026,538.274,0.0
53160.0,STARLINK-4096,PAYLOAD,2023-03-13 21:13:53,15.08833496,9.28e-05,53.2198,25.4198,127.7094,232.3983,7.5234e-05,9.1e-06,0.0,0 STARLINK-4096,1 53160U 22083AE  23072.88464280  .00000910  00000-0  75234-4 0  9999,2 53160  53.2198  25.4198 0000928 127.7094 232.3983 15.08833496 37167,6917.9,95.438,540.407,539.123,0.0
53160.0,STARLINK-4096,PAYLOAD,2023-03-14 13:07:44,15.08838527,0.0001346,53.2191,22.4467,126.5387,233.5729,0.00038414,5.831e-05,0.0,0 STARLINK-4096,1 53160U 22083AE  23073.54704769  .00005831  00000-0  38414-3 0  9997,2 53160  53.2191  22.4467 0001346 126.5387 233.5729 15.08838527 36635,6917.885,95.438,540.681,538.819,0.0
53160.0,STARLINK-4096,PAYLOAD,2023-03-15 03:26:12,15.08878534,0.0001114,53.2175,19.7738,126.1134,233.9962,0.0023492,0.00037337,0.0,0 STARLINK-4096,1 53160U 22083AE  23074.14320153  .00037337  00000-0  23492-2 0  9990,2 53160  53.2175  19.7738 0001114 126.1134 233.9962 15.08878534 37351,6917.763,95.435,540.398,538.857,0.0
53160.0,STARLINK-4096,PAYLOAD,2023-03-15 20:55:27,15.08852205,5.17e-05,53.2172,16.4996,99.6494,260.4556,0.0011367,0.00017855,0.0,0 STARLINK-4096,1 53160U 22083AE  23074.87184309  .00017855  00000-0  11367-2 0  9992,2 53160  53.2172  16.4996 0000517  99.6494 260.4556 15.08852205 37460,6917.843,95.437,540.066,539.35,0.0
53160.0,STARLINK-4096,PAYLOAD,2023-03-16 04:52:23,15.08843006,0.0001032,53.2177,15.0162,100.7233,259.3876,0.0018855,0.0002985,0.0,0 STARLINK-4096,1 53160U 22083AE  23075.20304498  .00029850  00000-0  18855-2 0  9990,2 53160  53.2177  15.0162 0001032 100.7233 259.3876 15.08843006 37510,6917.871,95.437,540.45,539.022,0.0
53160.0,STARLINK-4096,PAYLOAD,2023-03-17 04:43:10,15.08836023,0.0001115,53.2174,10.5539,80.54,279.5718,0.0009213,0.00014403,0.0,0 STARLINK-4096,1 53160U 22083AE  23076.19665336  .00014403  00000-0  92130-3 0  9997,2 53160  53.2174  10.5539 0001115  80.5400 279.5718 15.08836023 37664,6917.893,95.438,540.529,538.986,0.0
53160.0,STARLINK-4096,PAYLOAD,2023-03-17 12:40:06,15.08829353,9.01e-05,53.2167,9.0656,83.1139,276.9955,0.00033327,5.019e-05,0.0,0 STARLINK-4096,1 53160U 22083AE  23076.52785302  .00005019  00000-0  33327-3 0  9996,2 53160  53.2167   9.0656 0000901  83.1139 276.9955 15.08829353 37087,6917.913,95.438,540.401,539.155,0.0
53160.0,STARLINK-4096,PAYLOAD,2023-03-17 19:01:39,15.08834723,0.0001133,53.2154,7.8777,76.8397,283.2722,0.00029267,4.372e-05,0.0,0 STARLINK-4096,1 53160U 22083AE  23076.79281625  .00004372  00000-0  29267-3 0  9993,2 53160  53.2154   7.8777 0001133  76.8397 283.2722 15.08834723 37750,6917.897,95.438,540.545,538.978,0.0
53160.0,STARLINK-4096,PAYLOAD,2023-03-18 18:52:26,15.08842879,0.0001219,53.2172,3.4175,87.8988,272.2144,0.00024,3.534e-05,0.0,0 STARLINK-4096,1 53160U 22083AE  23077.78641656  .00003534  00000-0  24000-3 0  9996,2 53160  53.2172   3.4175 0001219  87.8988 272.2144 15.08842879 37271,6917.872,95.437,540.58,538.893,0.0
53160.0,STARLINK-4096,PAYLOAD,2023-03-19 04:24:44,15.08854492,0.0001156,53.2171,1.6329,91.5565,268.556,0.00049439,7.592e-05,0.0,0 STARLINK-4096,1 53160U 22083AE  23078.18385216  .00007592  00000-0  49439-3 0  9999,2 53160  53.2171   1.6329 0001156  91.5565 268.5560 15.08854492 37964,6917.836,95.437,540.501,538.901,0.0
53160.0,STARLINK-4096,PAYLOAD,2023-03-19 21:53:59,15.08846553,0.0001271,53.2181,358.3626,77.4469,282.6665,0.00028282,4.217e-05,0.0,0 STARLINK-4096,1 53160U 22083AE  23078.91249601  .00004217  00000-0  28282-3 0  9991,2 53160  53.2181 358.3626 0001271  77.4469 282.6665 15.08846553 37446,6917.86,95.437,540.605,538.846,0.0
53160.0,STARLINK-4096,PAYLOAD,2023-03-20 04:15:30,15.08893784,0.0001128,53.2188,357.1747,68.5702,291.541,0.0015807,0.00024995,0.0,0 STARLINK-4096,1 53160U 22083AE  23079.17744067  .00024995  00000-0  15807-2 0  9999,2 53160  53.2188 357.1747 0001128  68.5702 291.5410 15.08893784 38116,6917.716,95.434,540.361,538.801,0.0
53160.0,STARLINK-4096,PAYLOAD,2023-03-21 05:41:41,15.08854024,0.0001192,53.2184,352.4164,95.4894,264.6234,0.00088087,0.00013764,0.0,0 STARLINK-4096,1 53160U 22083AE  23080.23728979  .00013764  00000-0  88087-3 0  9995,2 53160  53.2184 352.4164 0001192  95.4894 264.6234 15.08854024 38271,6917.838,95.437,540.527,538.878,0.0
53160.0,STARLINK-4096,PAYLOAD,2023-03-21 21:35:33,15.08839735,0.0001341,53.2197,349.4465,74.9998,285.1142,-5.4192e-05,-1.15e-05,0.0,0 STARLINK-4096,1 53160U 22083AE  23080.89969734 -.00001150  00000-0 -54192-4 0  9992,2 53160  53.2197 349.4465 0001341  74.9998 285.1142 15.08839735 37747,6917.881,95.438,540.674,538.819,0.0
53160.0,STARLINK-4096,PAYLOAD,2023-03-22 00:46:20,15.08836552,0.0001202,53.2193,348.8526,70.2684,289.8438,0.00071944,0.00011179,0.0,0 STARLINK-4096,1 53160U 22083AE  23081.03217941  .00011179  00000-0  71944-3 0  9998,2 53160  53.2193 348.8526 0001202  70.2684 289.8438 15.08836552 38396,6917.891,95.438,540.587,538.924,0.0
